COSMOS 2433 (720)       
1 32275U 07052A   24236.32291625 -.00000069  00000+0  00000+0 0  9994
2 32275  65.9088 338.1515 0003974 219.2605 140.7460  2.13104019130930
COSMOS 2432 (719)       
1 32276U 07052B   24236.47867172 -.00000070  00000+0  00000+0 0  9999
2 32276  65.9237 338.2613 0008197 317.7026 107.8209  2.13103078130962
COSMOS 2434 (721)       
1 32393U 07065A   24235.22939142  .00000064  00000+0  00000+0 0  9994
2 32393  64.3216 214.3361 0000338   1.9974 131.4232  2.13101246129624
COSMOS 2436 (723)       
1 32395U 07065C   24237.29505094  .00000076  00000+0  00000+0 0  9993
2 32395  64.3301 214.3314 0016269 353.4907  59.7653  2.13100045129636
COSMOS 2456 (730)       
1 36111U 09070A   24234.97411334  .00000024  00000+0  00000+0 0  9999
2 36111  64.6412  93.6993 0002441 335.8891 115.5648  2.13103886114316
COSMOS 2457 (733)       
1 36112U 09070B   24237.19896199 -.00000001  00000+0  00000+0 0  9999
2 36112  64.6271  93.4800 0005337 141.0314 350.7690  2.13101246114362
COSMOS 2460 (732)       
1 36402U 10007C   24235.26062069 -.00000063  00000+0  00000+0 0  9998
2 36402  65.7642 336.8411 0001519 179.6504 257.8573  2.13106168112583
COSMOS 2476 (744)       
1 37867U 11064A   24237.56290186 -.00000003  00000+0  00000+0 0  9990
2 37867  64.9146  95.2707 0021551 232.9297 316.8772  2.13101590 99713
COSMOS 2477 (745)       
1 37868U 11064B   24236.37627753  .00000009  00000+0  00000+0 0  9998
2 37868  64.9210  95.3842 0018736 233.6026 304.3095  2.13103089 99632
COSMOS 2475 (743)       
1 37869U 11064C   24234.37042334  .00000031  00000+0  00000+0 0  9998
2 37869  64.9271  95.4678 0023343 250.5706 146.6371  2.13101907 99609
COSMOS 2485 (747)       
1 39155U 13019A   24237.25744624  .00000000  00000+0  00000+0 0  9997
2 39155  65.0714  95.8798 0021986 228.8559 131.0358  2.13101841 88175
COSMOS 2492 (754)       
1 39620U 14012A   24236.27414544 -.00000069  00000+0  00000+0 0  9990
2 39620  65.6450 336.3745 0011266 314.7836  45.1626  2.13103045 81111
COSMOS 2500 (755)       
1 40001U 14032A   24235.98337297 -.00000067  00000+0  00000+0 0  9991
2 40001  65.5822 336.1842 0008250 198.4835 161.5246  2.13105807 79328
COSMOS 2501 (702K)      
1 40315U 14075A   24236.23719831  .00000068  00000+0  00000+0 0  9993
2 40315  63.6229 213.3446 0020875 211.2510 148.6099  2.13101348 75721
COSMOS 2514 (751)       
1 41330U 16008A   24236.21994823 -.00000068  00000+0  00000+0 0  9994
2 41330  65.3764 335.6687 0012088 206.8939 153.0823  2.13102466 66490
COSMOS 2522 (752)       
1 42939U 17055A   24237.46772869  .00000076  00000+0  00000+0 0  9993
2 42939  64.0839 214.4318 0010039 241.6972 118.1904  2.13101864 53879
COSMOS 2527 (756)       
1 43508U 18053A   24236.48865269  .00000008  00000+0  00000+0 0  9998
2 43508  65.2308  96.0716 0007099 220.5396 139.4932  2.13102270 48154
COSMOS 2529 (757)       
1 43687U 18086A   24234.71023006  .00000062  00000+0  00000+0 0  9991
2 43687  64.2995 215.0562 0011544 259.8578  99.9978  2.13101936 45124
COSMOS 2534 (758)       
1 44299U 19030A   24237.13278448  .00000075  00000+0  00000+0 0  9996
2 44299  64.3727 214.9338 0013363 279.1441 273.4599  2.13101872 40809
COSMOS 2544 (759)       
1 44850U 19088A   24235.02497189  .00000026  00000+0  00000+0 0  9999
2 44850  65.2168  95.9566 0011630 252.1687 107.7974  2.13102038 36568
COSMOS 2545 (760)       
1 45358U 20018A   24236.62954954 -.00000072  00000+0  00000+0 0  9995
2 45358  64.7156 335.6106 0010255 236.2252 123.7158  2.13102390 34549
COSMOS 2547 (705K)      
1 46805U 20075A   24236.34707514  .00000071  00000+0  00000+0 0  9991
2 46805  64.6017 214.6219 0008778 241.9157 117.9821  2.13102809 29784
COSMOS 2557 (706K)      
1 52984U 22075A   24236.51263217 -.00000072  00000+0  00000+0 0  9996
2 52984  64.6442 337.7385 0011914 273.9174  85.9823  2.13102176 16589
COSMOS 2559 (707K)      
1 54031U 22130A   24237.39426310 -.00000078  00000+0  00000+0 0  9991
2 54031  64.6157 337.8230 0007431 217.5664 142.4167  2.13101476 14584
COSMOS 2564 (761)       
1 54377U 22161A   24236.17705023  .00000070  00000+0  00000+0 0  9995
2 54377  64.7431 214.7443 0011292 225.1790 134.7156  2.13102020 13506
COSMOS 2569 (703K)      
1 57517U 23114A   24236.19404686  .00000011  00000+0  00000+0 0  9991
2 57517  64.9454  95.0423 0009210 296.8370  63.1556  2.13103776  8137
